stk.v.11.0
# WrittenBy COMET v0.1.1
BEGIN Ephemeris
NumberOfEphemerisPoints 2436
ScenarioEpoch 31 Dec 1949 23:59:32.000000000
CentralBody Sun
CoordinateSystem ICRF
EphemerisTimePosVel
+2.64383995974865e9 +1.41590107875043e11 +4.35042716421260e10 +1.88565676983600e10 -9.93164359807827e3 +2.58082378800528e4 +1.11877585644903e4
+2.64513595974855e9 +1.24117345269385e11 +7.51380598747251e10 +3.25679516772467e10 -1.69000340482543e4 +2.27130584582586e4 +9.84487140016670e3
+2.64643195974835e9 +9.82775066790946e10 +1.01685835570950e11 +4.40764956825469e10 -2.27595495455597e4 +1.80318357941299e4 +7.81631969646037e3
+2.64772795974806e9 +6.57382543681908e10 +1.21314567024983e11 +5.25841663979995e10 -2.71685688158512e4 +1.20606870683288e4 +5.22829930325487e3
+2.64902395974769e9 +2.86854524000910e10 +1.32576734024837e11 +5.74669990088619e10 -2.96936901686153e4 +5.22569247912901e3 +2.26469355779735e3
+2.65031995974728e9 -1.03649850189660e10 +1.34663710644144e11 +5.83713127566682e10 -3.02053411164406e4 -2.03861707291186e3 -8.82481686383646e2
+2.65161595974685e9 -4.86779810068349e10 +1.27375588473863e11 +5.52129300622538e10 -2.85919373858393e4 -9.13720942084558e3 -3.96147932793937e3
+2.65291195974642e9 -8.36222184284996e10 +1.11228156827034e11 +4.82138285702978e10 -2.50042619072396e4 -1.56347067966958e4 -6.77557218425731e3
+2.65420795974604e9 -1.12749919602266e11 +8.73658713095849e10 +3.78705498113405e10 -1.97079612948687e4 -2.09754439963816e4 -9.09296128051384e3
+2.65550395974572e9 -1.34124393178830e11 +5.74721493501364e10 +2.49134239513896e10 -1.30813500769218e4 -2.48769011303008e4 -1.07820439603001e4
+2.65679995974550e9 -1.46324449947080e11 +2.36596374759774e10 +1.02564511123424e10 -5.66295528796664e3 -2.70146234343002e4 -1.17104378788758e4
+2.65809595974537e9 -1.48648493554330e11 -1.17706472924211e10 -5.10033145021484e9 +2.08876985858109e3 -2.73368301597062e4 -1.18491475620836e4
+2.65939195974535e9 -1.41047341184522e11 -4.64037588158684e10 -2.01134218213359e10 +9.55928361393734e3 -2.58312365192783e4 -1.11969618120239e4
+2.66068795974544e9 -1.24149410946225e11 -7.80008979410562e10 -3.38087900067564e10 +1.63568611693036e4 -2.26505665142269e4 -9.81874567977638e3
+2.66198395974563e9 -9.91749965584721e10 -1.04509152109198e11 -4.53001070050728e10 +2.19726384686785e4 -1.80573054682862e4 -7.82667098605153e3
+2.66327995974591e9 -6.78027661575545e10 -1.24306530935796e11 -5.38811570335922e10 +2.61604943828860e4 -1.23265329633955e4 -5.34431125543443e3
+2.66457595974626e9 -3.21184912571064e10 -1.36168180916439e11 -5.90234053827509e10 +2.86265415369481e4 -5.89522192816110e3 -2.55446264486206e3
+2.66587195974666e9 +5.61976784423473e9 -1.39409478825819e11 -6.04286266851102e10 +2.92834120541157e4 +9.17069513625191e2 +3.96118312215953e2
+2.66716795974708e9 +4.29864509760465e10 -1.33854902304284e11 -5.80210569106775e10 +2.80935519757422e4 +7.61076654350200e3 +3.29986389414942e3
+2.66846395974749e9 +7.76599825536707e10 -1.19855981121159e11 -5.19538615550432e10 +2.51147271367781e4 +1.38715650015856e4 +6.01170969354589e3
+2.66975995974787e9 +1.07410730823137e11 -9.82945785410115e10 -4.26074030906839e10 +2.05622003758873e4 +1.92418474873899e4 +8.34101395734089e3
+2.67105595974819e9 +1.30347293756828e11 -7.04769789053501e10 -3.05506461325572e10 +1.46293544009098e4 +2.34470592285420e4 +1.01629824426919e4
+2.67235195974845e9 +1.44930526406487e11 -3.81659477784948e10 -1.65443161783020e10 +7.74599643323770e3 +2.61685875149820e4 +1.13427706568800e4
+2.67364795974860e9 +1.50138022626372e11 -3.37303080307636e9 -1.46394306112522e9 +2.34759028087504e2 +2.72172859679708e4 +1.17980328994926e4
+2.67494395974865e9 +1.45524445138032e11 +3.16196100185219e10 +1.37047457025396e10 -7.33947590524192e3 +2.65001606478130e4 +1.14859022112194e4
+2.67623995974859e9 +1.31256456795387e11 +6.45255019949319e10 +2.79675998094887e10 -1.45596054512955e4 +2.39797061488196e4 +1.03953207563054e4
+2.67753595974843e9 +1.08194768534699e11 +9.30853890698877e10 +4.03475992373165e10 -2.08573964593828e4 +1.98446612785221e4 +8.60079755415429e3
+2.67883195974816e9 +7.77706593407501e10 +1.15324970332928e11 +4.99876857618167e10 -2.58167329727653e4 +1.42660269920427e4 +6.18512245751229e3
+2.68012795974782e9 +4.20314599071481e10 +1.29648425690364e11 +5.61963238979777e10 -2.90406244681492e4 +7.69868974740862e3 +3.33628817301766e3
+2.68142395974742e9 +3.37104391133170e9 +1.35000419393723e11 +5.85170039736315e10 -3.02584485395603e4 +5.12366294024356e2 +2.23238461891345e2
+2.68271995974700e9 -3.55070179810486e10 +1.30979951517875e11 +5.67739113834211e10 -2.94013093365340e4 -6.69513586731045e3 -2.90226348393141e3
+2.68401595974657e9 -7.19252526391499e10 +1.17829961159477e11 +5.10751262949679e10 -2.64625472041373e4 -1.34636282375899e4 -5.83551333980004e3
+2.68531195974617e9 -1.03341628073879e11 +9.65095617983485e10 +4.18330192381574e10 -2.17446738931458e4 -1.92587786369251e4 -8.34742069559966e3
+2.68660795974583e9 -1.27619749715652e11 +6.85005737101053e10 +2.96934081293304e10 -1.55140594296539e4 -2.36918770968333e4 -1.02699260375675e4
+2.68790395974557e9 -1.43155647327194e11 +3.58089969184235e10 +1.55224361536342e10 -8.32920366145238e3 -2.64794429475183e4 -1.14767395759659e4
+2.68919995974541e9 -1.48971867662069e11 +6.69159254778510e8 +2.91426696965721e8 -6.22813386220561e2 -2.74260544196974e4 -1.18891510087835e4
+2.69049595974535e9 -1.44815417690011e11 -3.45093849115067e10 -1.49572215201768e10 +6.99925958773995e3 -2.65686913657500e4 -1.15151968639052e4
+2.69179195974540e9 -1.31056322904580e11 -6.74153989789977e10 -2.92206528297214e10 +1.40833765193904e4 -2.39332753370174e4 -1.03752912560258e4
+2.69308795974556e9 -1.08746615231049e11 -9.59175770827846e10 -4.15749563459216e10 +2.01624182555108e4 -1.98195548777707e4 -8.58995294945491e3
+2.69438395974581e9 -7.93908812520123e10 -1.18222527694535e11 -5.12439340433112e10 +2.48700744265465e4 -1.44323010242387e4 -6.25666873189230e3
+2.69567995974613e9 -4.49695756706819e10 -1.32975715397857e11 -5.76383050902371e10 +2.79755311206750e4 -8.21215325203989e3 -3.55930578259762e3
+2.69697595974651e9 -7.67936709198982e9 -1.39276766977482e11 -6.03706606529046e10 +2.92551666623136e4 -1.48107614485963e3 -6.42228419188149e2
+2.69827195974693e9 +3.00895505347731e10 -1.36796733886048e11 -5.92950845574619e10 +2.87284015025314e4 +5.30148071730007e3 +2.29739161909943e3
+2.69956795974734e9 +6.59641758986671e10 -1.25676869975806e11 -5.44761965873076e10 +2.63423448337067e4 +1.17523020901032e4 +5.09456087732281e3
+2.70086395974774e9 +9.76779417708665e10 -1.06642582390172e11 -4.62252743219337e10 +2.23315705893725e4 +1.74865722064862e4 +7.57841108410561e3
+2.70215995974808e9 +1.23190928455925e11 -8.08359962877876e10 -3.50399078358142e10 +1.68352528885376e4 +2.21191431372559e4 +9.58865381611695e3
+2.70345595974836e9 +1.40851723328878e11 -4.98839427285851e10 -2.16235575034317e10 +1.02472969590332e4 +2.54054047249808e4 +1.10107203333998e4
+2.70475195974855e9 +1.49419353363848e11 -1.57138978315610e10 -6.81233859196469e9 +2.90491390048827e3 +2.70385389834053e4 +1.17211594299801e4
+2.70604795974863e9 +1.48266787052660e11 +1.94733665978371e10 +8.43937086398007e9 -4.70850952344587e3 +2.69638077981688e4 +1.16866281997914e4
+2.70734395974861e9 +1.37314506320292e11 +5.33681296912647e10 +2.31319071854895e10 -1.20986998562738e4 +2.50523376887031e4 +1.08599337962729e4
+2.70863995974848e9 +1.17203609596914e11 +8.36995587302933e10 +3.62785725676692e10 -1.87901878989755e4 +2.14729920801315e4 +9.30736072172494e3
+2.70993595974825e9 +8.91541042961081e10 +1.08352981525035e11 +4.69657733309070e10 -2.42478965228103e4 +1.63585211733877e4 +7.09086811575215e3
+2.71123195974794e9 +5.50191374483611e10 +1.25608533461187e11 +5.44446601427526e10 -2.81363876550526e4 +1.00908187702231e4 +4.37450952181583e3
+2.71252795974755e9 +1.70883526036224e10 +1.34180536406269e11 +5.81612636790257e10 -3.00588167429418e4 +3.07049726566437e3 +1.33033004084542e3
+2.71382395974714e9 -2.20286100532402e10 +1.33456585053615e11 +5.78471659455479e10 -2.99482444818135e4 -4.20019674577949e3 -1.81940499162554e3
+2.71511995974671e9 -5.96045608158138e10 +1.23430252880708e11 +5.35018289583783e10 -2.77099162467479e4 -1.11662984076344e4 -4.84116136802921e3
+2.71641595974630e9 -9.30485859058235e10 +1.04832245698323e11 +4.54406219451441e10 -2.35890995232821e4 -1.73717761452926e4 -7.52849939506915e3
+2.71771195974594e9 -1.20034943877597e11 +7.89642939647533e10 +3.42280441676286e10 -1.78392959337586e4 -2.23036376538685e4 -9.66866413745489e3
+2.71900795974565e9 -1.38787003018691e11 +4.76668732339842e10 +2.06626702427125e10 -1.09272934373251e4 -2.57117706627223e4 -1.11438029435177e4
+2.72030395974546e9 -1.48071718061491e11 +1.31210950050705e10 +5.68806181560413e9 -3.35272965787780e3 -2.72978325476552e4 -1.18329534638994e4
+2.72159995974537e9 -1.47405202798159e11 -2.23198116226713e10 -9.67309894366829e9 +4.37344436463286e3 -2.70796954214812e4 -1.17374564600132e4
+2.72289595974538e9 -1.36924706448475e11 -5.62707037204455e10 -2.43901921969720e10 +1.16827818138133e4 -2.50414981929022e4 -1.08542860260379e4
+2.72419195974550e9 -1.17463446602754e11 -8.65468822931087e10 -3.75127887258442e10 +1.81797393434571e4 -2.14178050099400e4 -9.28419582918412e3
+2.72548795974573e9 -9.03767186370710e10 -1.11196899036742e11 -4.81983397055608e10 +2.33844449210498e4 -1.64428591747234e4 -7.12658748530422e3
+2.72678395974603e9 -5.74860034200320e10 -1.28730100330054e11 -5.57978436950406e10 +2.70927561269967e4 -1.04616056567055e4 -4.53589129401756e3
+2.72807995974639e9 -2.09414681591993e10 -1.38057905849642e11 -5.98415257551554e10 +2.90112613413205e4 -3.87699246643540e3 -1.67955187640495e3
+2.72937595974679e9 +1.69407418654909e10 -1.38666505095217e11 -6.01055832293664e10 +2.91264234197190e4 +2.95151980565076e3 +1.27788789183902e3
+2.73067195974720e9 +5.37401720353650e10 -1.30521732930251e11 -5.65751647822268e10 +2.73786927299976e4 +9.54588476093717e3 +4.13857558619707e3
END Ephemeris